APRIZESAT 2             
1 28366U 04025A   26169.74590097  .00000121  00000+0  51157-4 0  9997
2 28366  98.1016 335.6380 0104372 245.0867 113.9446 14.38036285151868
SAUDICOMSAT 1           
1 28369U 04025D   26169.59740520  .00000287  00000+0  76904-4 0  9991
2 28369  98.5771 179.7668 0032544  21.4335 338.8216 14.55474767164335
SAUDICOMSAT 2           
1 28370U 04025E   26169.78126843  .00000176  00000+0  57313-4 0  9990
2 28370  98.6640 182.0726 0054203 254.5503 104.9699 14.49981975160337
APRIZESAT 1             
1 28372U 04025G   26169.60421087  .00000180  00000+0  56214-4 0  9995
2 28372  98.6302 180.3683 0045196 149.6089 210.7740 14.51777674162114
NANOSAT-1               
1 28493U 04049B   26169.79151873  .00000774  00000+0  10926-3 0  9996
2 28493  98.2279 306.4916 0002771 295.0997  64.9927 14.80162213155682
SAUDICOMSAT 7           
1 31119U 07012C   26169.34124627  .00000334  00000+0  69122-4 0  9991
2 31119  98.3778 143.4965 0055374 191.5497 168.4439 14.66111114 22602
SAUDICOMSAT 6           
1 31121U 07012E   26169.66378525  .00000448  00000+0  95417-4 0  9999
2 31121  98.4099 137.2076 0070964 323.1284  36.5048 14.62559880 20404
SAUDICOMSAT 5           
1 31124U 07012H   26169.65385378  .00000501  00000+0  94703-4 0  9992
2 31124  98.3489 144.5623 0048523 120.1950 240.4073 14.68157931 23818
SAUDICOMSAT 3           
1 31125U 07012J   26169.40777236  .00000683  00000+0  11944-3 0  9990
2 31125  98.3143 144.8594 0040183  49.5077 310.9619 14.70707619 25003
SAUDICOMSAT 4           
1 31127U 07012L   26169.65774721  .00000338  00000+0  72065-4 0  9994
2 31127  98.3983 142.2582 0062095 253.5371 105.9001 14.64513432 21505
APRIZESAT 4             
1 35684U 09041D   26169.74053902  .00000479  00000+0  63870-4 0  9991
2 35684  98.1412 245.0920 0042310 317.8956  41.9009 14.83881043911592
APRIZESAT 3             
1 35686U 09041F   26169.43647065  .00001583  00000+0  14062-3 0  9993
2 35686  98.2065 322.7199 0062803  63.7248 297.0406 14.96245554916562
S-NET D                 
1 43186U 18014G   26169.71541100  .00003689  00000+0  19168-3 0  9992
2 43186  97.5358  74.4965 0008797  25.6716 334.4952 15.16684949458992
S-NET B                 
1 43187U 18014H   26169.79287080  .00003922  00000+0  20371-3 0  9993
2 43187  97.5364  74.5602 0009289  20.2719 339.8881 15.16656224459008
S-NET A                 
1 43188U 18014J   26169.71428054  .00003683  00000+0  19133-3 0  9992
2 43188  97.5375  74.6911 0009174  21.1515 339.0095 15.16692782458997
S-NET C                 
1 43189U 18014K   26169.73077832  .00003987  00000+0  20707-3 0  9995
2 43189  97.5392  74.7825 0010266  12.7269 347.4221 15.16647668457545
SALSAT                  
1 46495U 20068K   26169.45370448  .00006100  00000+0  21401-3 0  9990
2 46495  97.8850 172.5954 0007987 302.8690  57.1780 15.29814902315557
OOV-CUBE (TUBSAT-30)    
1 60240U 24128F   26169.58586730  .00001416  00000+0  11902-3 0  9992
2 60240  61.9932 220.6959 0044464 134.0792 226.3973 15.02778203106324
LPNTSAT-001 (IOD-1)     
1 68408U 26065A   26169.39465904  .00002151  00000+0  10711-3 0  9990
2 68408  97.4012  49.8787 0016539   6.5853 353.5595 15.18543194 12442
